HELIOS 1B               
1 25977U 99064A   20244.41048289  .00000040  00000-0  12114-4 0  9993
2 25977  98.2903  41.9457 0002570  96.9990 263.1514 14.82491764386228
TERRA                   
1 25994U 99068A   20244.50091826  .00000012  00000-0  12697-4 0  9996
2 25994  98.2085 317.7256 0001304 109.0619 251.0725 14.57112559101248
SL-16 R/B               
1 26070U 00006B   20244.57102414 -.00000220  00000-0 -88252-4 0  9992
2 26070  71.0040  15.4011 0016369   2.1383 357.9807 14.15464706 63267
MTI                     
1 26102U 00014A   20244.60452288  .00005009  00000-0  72640-4 0  9990
2 26102  97.4927 130.5141 0006765 324.6680  35.4130 15.56333370136203
TITAN 4B R/B            
1 26474U 00047B   20244.40245991  .00000012  00000-0  11962-4 0  9996
2 26474  67.9923 229.3848 0051471 117.4912 243.1476 14.95981336 90533
ENVISAT                 
1 27386U 02009A   20244.58168199  .00000023  00000-0  21077-4 0  9992
2 27386  98.1378 247.6838 0001348  85.4324  23.1700 14.37990434969342
IDEFIX & ARIANE 42P R/B 
1 27422U 02021B   20244.50084813 -.00000019  00000-0  89098-5 0  9993
2 27422  98.3576 202.4862 0012653  15.0010 345.1545 14.29292974955886
AQUA                    
1 27424U 02022A   20244.55582038  .00000052  00000-0  21700-4 0  9994
2 27424  98.2060 184.1120 0002631  95.5096  89.8956 14.57112852974808
CZ-4B R/B               
1 27432U 02024C   20244.56052056 -.00000018  00000-0  14907-4 0  9992
2 27432  99.0901 248.0333 0049897 325.5109 140.5230 14.14096414944267
MIDORI II (ADEOS-II)    
1 27597U 02056A   20244.46826322  .00000005  00000-0  19408-4 0  9999
2 27597  98.5243 190.1877 0001968 103.6398 256.5003 14.27457505922510
H-2A R/B                
1 27601U 02056E   20244.58184361  .00000049  00000-0  32323-4 0  9997
2 27601  98.2214 276.4698 0073152  54.5513  59.2331 14.31965433925443
CZ-4B R/B               
1 28059U 03049C   20244.54231916  .00000005  00000-0  13053-4 0  9994
2 28059  98.4820 161.9115 0048859 269.1620  90.3977 14.52608399893733
CZ-2C R/B               
1 28222U 04012C   20244.45235760  .00000395  00000-0  27482-4 0  9991
2 28222  97.6839 207.2263 0048180 132.1899 341.4899 15.10448020897351
SL-16 R/B               
1 28353U 04021B   20244.46456351  .00000249  00000-0  15522-3 0  9997
2 28353  71.0016 142.0072 0006640 234.7661 125.2841 14.14238970837740
CZ-4B R/B               
1 28415U 04035C   20244.20677677  .00000527  00000-0  38497-4 0  9995
2 28415  97.6076 284.9401 0053080  97.4734 263.2529 15.06895925874890
CZ-2C R/B               
1 28480U 04046B   20244.58829101 -.00000030  00000-0  38566-5 0  9999
2 28480  98.0740 273.6926 0141934   3.1597 106.6090 14.25727666821126
ARIANE 5 R/B            
1 28499U 04049H   20244.34632378  .00000003  00000-0  77476-5 0  9996
2 28499  98.0585 346.3723 0092834  31.9914  11.0638 14.80042563847179
CZ-2D R/B               
1 28738U 05024B   20244.55775642  .00000317  00000-0  22030-4 0  9994
2 28738  97.3803 264.6314 0010271 286.8079  73.2025 15.12087746832752
SUZAKU (ASTRO-EII)      
1 28773U 05025A   20244.46215614  .00000800  00000-0  34432-4 0  9998
2 28773  31.3811 248.9018 0004545 242.0426 117.9761 15.17654501835346
ALOS (DAICHI)           
1 28931U 06002A   20244.52616923  .00000091  00000-0  26392-4 0  9993
2 28931  97.8511 226.6014 0000782 107.6627 252.4660 14.62734442778670
H-2A R/B                
1 28932U 06002B   20244.55899226  .00000538  00000-0  55089-4 0  9997
2 28932  98.3263 238.8380 0089974  76.0801  36.1561 14.92270725792344
AKARI (ASTRO-F)         
1 28939U 06005A   20244.50779785  .00004151  00000-0  11010-3 0  9999
2 28939  98.2378 227.2785 0094018  62.0344 299.0373 15.34581901792406
RESURS-DK 1             
1 29228U 06021A   20244.57497850  .00000049  00000-0  11071-4 0  9996
2 29228  69.9376 356.7587 0006252 317.2105  42.8569 15.02562405784036
GENESIS 1               
1 29252U 06029A   20244.57036318  .00000146  00000-0  16994-4 0  9996
2 29252  64.5224  55.8884 0005416  39.2371 320.9144 15.18199789779503
CZ-4B R/B               
1 29507U 06046C   20244.57220011 -.00000737  00000-0 -51978-4 0  9992
2 29507  97.7438 266.2819 0046397 269.4213  90.1694 15.00607755756635
CZ-2C R/B               
1 31114U 07010B   20244.52447606  .00000064  00000-0  48374-4 0  9994
2 31114  98.2537  92.3308 0060710  49.0985 311.5428 14.19329668693652
COSMO-SKYMED 1          
1 31598U 07023A   20244.54952130  .00000420  00000-0  59322-4 0  9990
2 31598  97.8871  66.6170 0001484  94.0662 266.0745 14.82160250715954
GENESIS 2               
1 31789U 07028A   20244.30365059  .00000440  00000-0  32029-4 0  9996
2 31789  64.5030  98.4938 0035788 234.6507 125.1269 15.17326375726536
COSMOS 2428             
1 31792U 07029A   20244.35904738 -.00000319  00000-0 -14692-3 0  9991
2 31792  70.9039 115.6499 0010662 313.8280  46.1959 14.12291762679446
SL-16 R/B               
1 31793U 07029B   20244.59302411 -.00000189  00000-0 -73817-4 0  9998
2 31793  70.9755  88.5213 0002392 265.3157 157.0450 14.14437696680315
KORONAS-FOTON           
1 33504U 09003A   20244.23507376  .00000333  00000-0  15704-4 0  9992
2 33504  82.4437 148.4242 0019808  24.9553 335.2632 15.15689652638812
H-2A R/B                
1 38341U 12025E   20244.49100892  .00000143  00000-0  24335-4 0  9993
2 38341  98.5092  44.4028 0055294 352.1908   7.8438 14.84063296448491
CUSAT 2 & FALCON 9 R/B  
1 39271U 13055G   20244.35032626  .00006297  00000-0  15223-3 0  9995
2 39271  80.9682 186.4127 0584110 304.9951  49.7717 14.48915927361573
SL-4 R/B                
1 39679U 14021B   20244.14378749  .00000009  00000-0  18691-4 0  9995
2 39679  51.6164 120.7836 0171521 204.4232 154.8541 15.06468931350289
ALOS-2                  
1 39766U 14029A   20244.51596757 -.00000173  00000-0 -16326-4 0  9999
2 39766  97.9222 340.0389 0001519  89.1140 271.0244 14.79470626338796
CZ-2C R/B               
1 40306U 14071B   20244.49757865  .00003472  00000-0  74403-4 0  9997
2 40306  97.3292 191.7066 0013523 250.1731 109.8060 15.45373465325467
SL-27 R/B               
1 40354U 14084B   20244.54706694  .00000965  00000-0  24687-4 0  9997
2 40354  74.7363 232.7276 0036891  21.4917 338.7833 15.40326752319696
YAOGAN 29               
1 41038U 15069A   20244.46134616 -.00000017  00000-0  47168-5 0  9990
2 41038  98.0152 232.3280 0001905  53.1199 307.0191 14.80456914257373
ASTRO-H (HITOMI)        
1 41337U 16012A   20244.45961631  .00000258  00000-0  14025-4 0  9996
2 41337  31.0047 254.1844 0012329  92.4078 267.7969 14.98703283248768
SHENZHOU-11 MODULE      
1 41868U 16061G   20244.45824981  .00139158  17364-4  15794-3 0  9995
2 41868  42.7856  23.4211 0016012 337.7678  63.3613 16.08229448218103
HXMT (HUIYAN)           
1 42758U 17034A   20244.58336039  .00000175  00000-0  24568-4 0  9992
2 42758  43.0203 343.8260 0009244 143.3504 231.3467 15.08877305177224
CZ-2C R/B               
1 43521U 18054D   20244.00809611  .00000506  00000-0  29805-4 0  9999
2 43521  35.1538  80.4766 0081966  54.8973 305.9392 15.11052428120439
AEOLUS                  
1 43600U 18066A   20244.52962931  .00031758  00000-0  12490-3 0  9996
2 43600  96.7193 249.7977 0005335  93.3285 266.8598 15.86828273117273
SAOCOM 1A               
1 43641U 18076A   20244.49026655  .00000005  00000-0  72223-5 0  9995
2 43641  97.8901  69.5326 0001476  81.6629 278.4762 14.82155742102711
CREW DRAGON DEMO-1 DEB  
1 44064U 19011B   20244.46200554  .00017682  00000-0  17025-3 0  9990
2 44064  51.6335 291.9498 0003717 355.7661   4.3303 15.66624064 84663
